#aV2024  9 27  0  0  0.00000000     288 DD+AD WGS84 FIT  NGA
## 2333 432000.00000000   300.00000000 60580 0.0000000000000
+   31     2  3  4  5  6  7  8  9 10 11 12 13 14 15 16 17 18
+         19 20 21 22 23 24 25 26 27 28 29 30 31 32  0  0  0
+          0  0  0  0  0  0  0  0  0  0  0  0  0  0  0  0  0
+          0  0  0  0  0  0  0  0  0  0  0  0  0  0  0  0  0
+          0  0  0  0  0  0  0  0  0  0  0  0  0  0  0  0  0
++         2  2  2  2  2  2  2  2  2  2  2  2  2  2  2  2  2
++         2  2  2  2  2  2  2  2  2  2  2  2  2  2  0  0  0
++         0  0  0  0  0  0  0  0  0  0  0  0  0  0  0  0  0
++         0  0  0  0  0  0  0  0  0  0  0  0  0  0  0  0  0
++         0  0  0  0  0  0  0  0  0  0  0  0  0  0  0  0  0
%c cc cc ccc ccc cccc cccc cccc cccc ccccc ccccc ccccc ccccc
%c cc cc ccc ccc cccc cccc cccc cccc ccccc ccccc ccccc ccccc
%f  0.0000000  0.000000000  0.00000000000  0.000000000000000
%f  0.0000000  0.000000000  0.00000000000  0.000000000000000
%i    0    0    0    0      0      0      0      0         0
%i    0    0    0    0      0      0      0      0         0
/*      NGA, ST. LOUIS,MO.                                  
/*   EPHEMERIS COMPUTED FROM 2 DAYS OF DATA                 
/*   EPOCHA v9 SMOOTHER                                     
/*   G2296 IERS2010 SATIGS SATAPC                           
*  2024  9 27 18 30  0.00000000
P  2 -17166.976518  -3647.577715  20504.357100   -349.094432                    
V  2  -9586.599695 -22967.255723 -12071.903183      0.080814                    
P  3 -20307.493432   9134.246712  14226.529366    552.197183                    
V  3  10722.633613 -14983.738456  24741.847265      0.125362                    
P  4 -25345.635847    162.737605  -8171.800155    451.546567                    
V  4  -9590.211465  -4549.215263  29464.408164      0.069840                    
P  5  13956.934161   6313.468704 -21886.407950   -187.982830                    
V  5 -16491.858650  21769.016652  -4207.378682     -0.012406                    
P  6   4412.581787  25457.760041   5974.937692      1.359218                    
V  6  -4186.234647  -6504.065394  31258.673696     -0.266825                    
P  7  -9661.001024  14376.509903 -19477.496286    -33.133515                    
V  7 -10208.479593 -24032.957265 -12792.970101      0.039446                    
P  8 -25735.426901  -6519.912576  -3758.986082    366.643979                    
V  8   4926.634598  -2002.685883 -30780.449617      0.123853                    
P  9 -19088.861997   8638.550558 -16451.012285    374.597337                    
V  9 -20152.273449  -5052.557268  20788.193108      0.162568                    
P 10   7364.239131 -21870.485288  13054.273993   -139.315292                    
V 10  11996.475495 -11204.731178 -26289.171686     -0.127622                    
P 11  12790.296983  21638.693188  -8656.550391   -738.994034                    
V 11    910.162893  11228.048085  29231.668626     -0.036881                    
P 12  20296.431143  -4547.191829  16209.797962   -541.150849                    
V 12 -13384.984752  16463.853652  21059.273166     -0.027482                    
P 13  20629.549778  13987.125145  -9744.530246    678.700725                    
V 13 -11956.177709  -1957.667402 -28568.343421      0.019594                    
P 14 -10823.937320  22265.748395   9350.099854    505.109584                    
V 14 -10290.342554   6774.236203 -28404.419779      0.084943                    
P 15  26173.124984   3630.555999  -3974.560466    209.209040                    
V 15  -4499.294966   3222.452142 -30562.660389      0.044184                    
P 16 -10429.985841 -11292.692727 -21989.935870   -169.686642                    
V 16  19507.355006 -18852.172594    876.271310      0.100977                    
P 17  -3311.551288  14917.813302  22140.484162    613.774601                    
V 17 -26324.051944  -6423.707834    573.018404     -0.120005                    
P 18   8975.580199 -15291.683594 -19678.822594   -655.595757                    
V 18   9038.893501  23413.074438 -14272.121173     -0.018370                    
P 19   6980.797892  16303.579473  19752.434733    543.502015                    
V 19 -24494.320174  -6269.456131  13311.327749      0.048200                    
P 20   6663.257570  16367.904477 -19800.618511    370.215874                    
V 20 -13718.182998  21255.900845  12760.595837     -0.003711                    
P 21 -18152.521697 -10363.818788  17379.733665    100.916046                    
V 21  -7868.993153 -19369.655179 -19197.279787     -0.007447                    
P 22  -4810.322414  20780.208366  16423.082016    -65.940565                    
V 22 -15389.958301  12840.121731 -20992.469403     -0.035716                    
P 23  16413.921345 -20721.634918    371.568610    329.507211                    
V 23   2120.095830   1148.756315 -32338.250190      0.083105                    
P 24  17866.492330   6036.398257  18409.037107   -486.146705                    
V 24   8790.439595  22670.404743 -15182.873655      0.006816                    
P 25  19657.408881 -16070.505861   6980.232491    499.622404                    
V 25  -3422.184877   9342.944895  29956.122118     -0.000279                    
P 26  -1467.670553 -20069.393463 -17307.912719     69.175185                    
V 26  14716.683631 -16407.108594  18324.602143     -0.088694                    
P 27 -19434.357711 -12922.652424 -13361.311789    -34.112263                    
V 27  16403.231059    986.117810 -24955.990220     -0.003873                    
P 28  -3770.545061 -25035.784901   8010.956735   -426.446158                    
V 28   6124.689651   8548.496867  29552.466404     -0.134653                    
P 29  21374.599747  -5039.734044 -15072.479088   -575.084631                    
V 29  17910.763124   6562.720190  23146.886876      0.024656                    
P 30  -2364.409038  22635.780485 -13317.598527   -313.242522                    
V 30  -8671.101378 -15305.471559 -24465.748657      0.072798                    
P 31 -11057.217181 -23553.130279  -4422.967990   -224.155609                    
V 31   1396.947449  -6140.184320  31195.880733      0.004828                    
P 32    618.021809 -15359.211046  21886.303535   -592.904109                    
V 32  26869.671466   4589.634496   2287.677966      0.039772                    
EOF
